TIANMU-1 08             
1 57400U 23101B   26066.00237819  .00000346  00000+0  14775-4 0  9993
2 57400  97.2717 118.7901 0006380 134.2174 225.9592 15.29204229146020
STARLINK-34158          
1 63996U 25101C   26068.14442162  .00031986  00000+0  11660-2 0  9990
2 63996  43.0035   0.9277 0001360 284.6533  75.4168 15.27603972 46975
